[{"OBJECT_NAME":"GLOBALSTAR M091","OBJECT_ID":"2011-033C","EPOCH":"2026-03-09T12:19:51.159648","MEAN_MOTION":12.62270327,"ECCENTRICITY":8.483e-5,"INCLINATION":51.9991,"RA_OF_ASC_NODE":185.3633,"ARG_OF_PERICENTER":103.6138,"MEAN_ANOMALY":336.8704,"EPHEMERIS_TYPE":0,"CLASSIFICATION_TYPE":"U","NORAD_CAT_ID":37741,"ELEMENT_SET_NO":999,"REV_AT_EPOCH":67669,"BSTAR":0.00014268137,"MEAN_MOTION_DOT":-7.8e-7,"MEAN_MOTION_DDOT":0},{"OBJECT_NAME":"COSMOS 2170","OBJECT_ID":"1991-077F","EPOCH":"2026-03-09T18:31:35.680800","MEAN_MOTION":12.62584453,"ECCENTRICITY":0.0002821,"INCLINATION":82.6133,"RA_OF_ASC_NODE":332.291,"ARG_OF_PERICENTER":137.9654,"MEAN_ANOMALY":277.5851,"EPHEMERIS_TYPE":0,"CLASSIFICATION_TYPE":"U","NORAD_CAT_ID":21784,"ELEMENT_SET_NO":999,"REV_AT_EPOCH":58153,"BSTAR":0.00011008841,"MEAN_MOTION_DOT":3.0e-7,"MEAN_MOTION_DDOT":0}]
